ONEWEB-0628             
1 55169U 23004AF  26005.56244741  .00000356  00000+0  95354-3 0  9993
2 55169  87.8926  22.9460 0002429  99.3670 260.7733 13.12446228146701
ONEWEB-0629             
1 55170U 23004AG  26005.61010372 -.00000007  00000+0 -51230-4 0  9993
2 55170  87.9086  38.1950 0002075  90.1842 269.9527 13.17649808146178
ONEWEB-0631             
1 55171U 23004AH  26005.49779571  .00000047  00000+0  85681-4 0  9992
2 55171  87.9176   7.7365 0001386 104.8034 255.3252 13.18684666148236
ONEWEB-0709             
1 55172U 23004AJ  26005.61591824 -.00000485  00000+0 -14038-2 0  9994
2 55172  87.8827  53.4539 0000864 107.0949 253.0273 13.11416672144563
ONEWEB-0710             
1 55173U 23004AK  26005.62444781  .00000055  00000+0  10721-3 0  9992
2 55173  87.9086  38.1866 0001819 100.2613 259.8724 13.17650198146172
ONEWEB-0711             
1 55174U 23004AL  26005.58711463  .00000435  00000+0  11917-2 0  9991
2 55174  87.8833  53.4355 0002363 113.1803 246.9574 13.11418017144527
ONEWEB-0713             
1 55175U 23004AM  26005.60574905 -.00000339  00000+0 -99105-3 0  9994
2 55175  87.8832  53.4332 0002098 108.9926 251.1429 13.11415831144512
ONEWEB-0715             
1 55176U 23004AN  26005.60066498 -.00000165  00000+0 -50103-3 0  9990
2 55176  87.8831  53.4348 0001253 120.1177 240.0076 13.11414706144554
